IRIDIUM 171             
1 43929U 19002H   24293.15197620  .00001419  00000+0  49957-3 0  9991
2 43929  86.3963 247.0267 0002611  78.1939 281.9549 14.34224908302098
IRIDIUM 167             
1 43931U 19002K   24293.14565013  .00001458  00000+0  51330-3 0  9999
2 43931  86.3955 246.8069 0002549  82.4127 277.7358 14.34219673302090
IRIDIUM 181             
1 56726U 23068S   24293.11450280  .00000666  00000+0  19088-3 0  9992
2 56726  86.8586 306.6112 0002663  86.0538 274.0968 14.43568762 75010
IRIDIUM 177             
1 56727U 23068T   24292.86853706  .00006849  00000+0  89725-3 0  9998
2 56727  86.1943 256.6067 0002978  96.0913 264.0648 14.80233088 76679
IRIDIUM 178             
1 56729U 23068V   24293.12813471  .00002388  00000+0  31086-3 0  9996
2 56729  86.5722 279.9465 0002618  87.6132 272.5389 14.80232824 76718
IRIDIUM 179             
1 56730U 23068W   24293.12268715  .00002322  00000+0  30207-3 0  9995
2 56730  86.6726 285.6494 0002758  95.5495 264.6041 14.80238543 76717
